
# Worst residual: 4.57 km
# MJD 58910.000000 (2020 Mar  2  0:00)
S509559 = prob Vela
1 89990U 00000AAJ 20062.49919926  .00000000  00000-0  00000-0 0 10042
2 89990 022.7966 026.1910 4720131 025.6380 128.0435 00.21359378    01

# Worst residual: 1.22 km
# MJD 58911.000000 (2020 Mar  3  0:00)
S509559 = prob Vela
1 89990U 00000AAJ 20063.49919926  .00000000  00000-0  00000-0 0 10043
2 89990 022.8022 026.1934 4723757 025.6265 204.9564 00.21370184    05

# Worst residual: 6.20 km
# MJD 58912.000000 (2020 Mar  4  0:00)
S509559 = prob Vela
1 89990U 00000AAJ 20064.49919926  .00000000  00000-0  00000-0 0 10044
2 89990 022.8083 026.1962 4724139 025.6830 281.7651 00.21379335    03

# Worst residual: 6.69 km
# MJD 58913.000000 (2020 Mar  5  0:00)
S509559 = prob Vela
1 89990U 00000AAJ 20065.49919926  .00000000  00000-0  00000-0 0 10045
2 89990 022.8126 026.2066 4718963 025.7311 358.6272 00.21405988    07

# Worst residual: 4.28 km
# MJD 58914.000000 (2020 Mar  6  0:00)
S509559 = prob Vela
1 89990U 00000AAJ 20066.49919926  .00000000  00000-0  00000-0 0 10046
2 89990 022.8189 026.2053 4726741 025.7827 075.4520 00.21365571    00

# Worst residual: 10.41 km
# MJD 58915.000000 (2020 Mar  7  0:00)
S509559 = prob Vela
1 89990U 00000AAJ 20067.49919926  .00000000  00000-0  00000-0 0 10047
2 89990 022.8263 026.2081 4723910 025.7026 152.5630 00.21385311    03

# Worst residual: 12.09 km
# MJD 58916.000000 (2020 Mar  8  0:00)
S509559 = prob Vela
1 89990U 00000AAJ 20068.49919926  .00000000  00000-0  00000-0 0 10048
2 89990 022.8310 026.2068 4715348 025.5686 229.8137 00.21361551    07

# Worst residual: 10.85 km
# MJD 58917.000000 (2020 Mar  9  0:00)
S509559 = prob Vela
1 89990U 00000AAJ 20069.49919926  .00000000  00000-0  00000-0 0 10049
2 89990 022.8379 026.2104 4716424 025.3827 306.9077 00.21302679    00

# Worst residual: 15.82 km
# MJD 58918.000000 (2020 Mar 10  0:00)
S509559 = prob Vela
1 89990U 00000AAJ 20070.49919926  .00000000  00000-0  00000-0 0 10041
2 89990 022.8368 026.2135 4700440 025.5082 023.6530 00.21421616    08

# Worst residual: 36.12 km
# MJD 58919.000000 (2020 Mar 11  0:00)
S509559 = prob Vela
1 89990U 00000AAJ 20071.49919926  .00000000  00000-0  00000-0 0 10042
2 89990 022.8593 026.1883 4713872 025.8176 100.0382 00.21322193    02

# Worst residual: 32.38 km
# MJD 58920.000000 (2020 Mar 12  0:00)
S509559 = prob Vela
1 89990U 00000AAJ 20072.49919926  .00000000  00000-0  00000-0 0 10043
2 89990 022.9261 026.2119 4737451 026.1719 175.7152 00.21302661    06

# Worst residual: 10.30 km
# MJD 58921.000000 (2020 Mar 13  0:00)
S509559 = prob Vela
1 89990U 00000AAJ 20073.49919926  .00000000  00000-0  00000-0 0 10044
2 89990 022.9656 026.2776 4766268 026.3318 252.1585 00.21373135    02

# Worst residual: 40.36 km
# MJD 58922.000000 (2020 Mar 14  0:00)
S509559 = prob Vela
1 89990U 00000AAJ 20074.49919926  .00000000  00000-0  00000-0 0 10045
2 89990 022.9761 026.3075 4790122 026.2954 329.2978 00.21321251    07

# Worst residual: 32.16 km
# MJD 58923.000000 (2020 Mar 15  0:00)
S509559 = prob Vela
1 89990U 00000AAJ 20075.49919926  .00000000  00000-0  00000-0 0 10046
2 89990 022.9724 026.3004 4786279 026.6349 045.9571 00.21334294    00

# Worst residual: 11.61 km
# MJD 58924.000000 (2020 Mar 16  0:00)
S509559 = prob Vela
1 89990U 00000AAJ 20076.49919926  .00000000  00000-0  00000-0 0 10047
2 89990 022.9801 026.2993 4772721 026.4572 123.3356 00.21410136    07

# Worst residual: 9.97 km
# MJD 58925.000000 (2020 Mar 17  0:00)
S509559 = prob Vela
1 89990U 00000AAJ 20077.49919926  .00000000  00000-0  00000-0 0 10048
2 89990 022.9882 026.3038 4765528 026.3717 200.6128 00.21404708    08

# Worst residual: 8.25 km
# MJD 58926.000000 (2020 Mar 18  0:00)
S509559 = prob Vela
1 89990U 00000AAJ 20078.49919926  .00000000  00000-0  00000-0 0 10049
2 89990 022.9962 026.3103 4748768 026.2745 277.6010 00.21363269    07

# Worst residual: 4.76 km
# MJD 58927.000000 (2020 Mar 19  0:00)
S509559 = prob Vela
1 89990U 00000AAJ 20079.49919926  .00000000  00000-0  00000-0 0 10040
2 89990 023.0001 026.3231 4738445 026.3426 354.3708 00.21411009    06

# Worst residual: 6.42 km
# MJD 58928.000000 (2020 Mar 20  0:00)
S509559 = prob Vela
1 89990U 00000AAJ 20080.49919926  .00000000  00000-0  00000-0 0 10042
2 89990 023.0058 026.3180 4743260 026.4305 071.2315 00.21377261    09

# Worst residual: 3.96 km
# MJD 58929.000000 (2020 Mar 21  0:00)
S509559 = prob Vela
1 89990U 00000AAJ 20081.49919926  .00000000  00000-0  00000-0 0 10043
2 89990 023.0142 026.3208 4746228 026.4616 148.0636 00.21375319    07

# Worst residual: 15.75 km
# MJD 58930.000000 (2020 Mar 22  0:00)
S509559 = prob Vela
1 89990U 00000AAJ 20082.49919926  .00000000  00000-0  00000-0 0 10044
2 89990 023.0223 026.3259 4749548 026.3747 225.2189 00.21378904    09

# Worst residual: 28.35 km
# MJD 58931.000000 (2020 Mar 23  0:00)
S509559 = prob Vela
1 89990U 00000AAJ 20083.49919926  .00000000  00000-0  00000-0 0 10045
2 89990 023.0300 026.3335 4760683 026.1413 302.5789 00.21308767    06

# Worst residual: 24.43 km
# MJD 58932.000000 (2020 Mar 24  0:00)
S509559 = prob Vela
1 89990U 00000AAJ 20084.49919926  .00000000  00000-0  00000-0 0 10046
2 89990 023.0269 026.3413 4757157 026.3735 019.2791 00.21384891    05

# Worst residual: 7.68 km
# MJD 58933.000000 (2020 Mar 25  0:00)
S509559 = prob Vela
1 89990U 00000AAJ 20085.49919926  .00000000  00000-0  00000-0 0 10047
2 89990 023.0367 026.3293 4753603 026.4083 096.2723 00.21402817    08

# Worst residual: 3.17 km
# MJD 58934.000000 (2020 Mar 26  0:00)
S509559 = prob Vela
1 89990U 00000AAJ 20086.49919926  .00000000  00000-0  00000-0 0 10048
2 89990 023.0418 026.3322 4753539 026.5142 173.0332 00.21387035    07

# Worst residual: 14.78 km
# MJD 58935.000000 (2020 Mar 27  0:00)
S509559 = prob Vela
1 89990U 00000AAJ 20087.49919926  .00000000  00000-0  00000-0 0 10049
2 89990 023.0464 026.3319 4750689 026.4668 250.0823 00.21370705    06

# Worst residual: 51.55 km
# MJD 58936.000000 (2020 Mar 28  0:00)
S509559 = prob Vela
1 89990U 00000AAJ 20088.49919926  .00000000  00000-0  00000-0 0 10040
2 89990 023.0534 026.3517 4772242 026.2859 327.3234 00.21270236    05

# Worst residual: 40.47 km
# MJD 58937.000000 (2020 Mar 29  0:00)
S509559 = prob Vela
1 89990U 00000AAJ 20089.49919926  .00000000  00000-0  00000-0 0 10041
2 89990 023.0497 026.3413 4765897 026.7055 043.8346 00.21309846    03

# Worst residual: 5.64 km
# MJD 58938.000000 (2020 Mar 30  0:00)
S509559 = prob Vela
1 89990U 00000AAJ 20090.49919926  .00000000  00000-0  00000-0 0 10043
2 89990 023.0594 026.3372 4750084 026.5961 121.0390 00.21374727    09

# Worst residual: 1.89 km
# MJD 58939.000000 (2020 Mar 31  0:00)
S509559 = prob Vela
1 89990U 00000AAJ 20091.49919926  .00000000  00000-0  00000-0 0 10044
2 89990 023.0664 026.3408 4752117 026.5989 197.9665 00.21381918    03
